{"type": "FeatureCollection", "features": [ {"type": "Feature", "properties": {"norad_id": 66524, "name": "STARLINK-35687", "group": "last-30-days", "lat": -34.78342620052179, "lon": 24.845144370769873, "alt_km": 411.5693484367366, "timestamp": "2025-12-09T11:33:53.575249+00:00", "meta": {"OBJECT_NAME": "STARLINK-35687", "OBJECT_ID": "2025-265J", "EPOCH": "2025-12-09T04:00:01.998720", "MEAN_MOTION": 15.53828954, "ECCENTRICITY": 0.000153, "INCLINATION": 43.0001, "RA_OF_ASC_NODE": 74.8886, "ARG_OF_PERICENTER": 268.1453, "MEAN_ANOMALY": 70.6967, "EPHEMERIS_TYPE": 0, "CLASSIFICATION_TYPE": "U", "NORAD_CAT_ID": 66524, "ELEMENT_SET_NO": 999, "REV_AT_EPOCH": 442, "BSTAR": -0.033381, "MEAN_MOTION_DOT": -0.01972258, "MEAN_MOTION_DDOT": 0}, "tle": {"line1": "1 66524U 25265J   25343.16668980 -.01972258  00000+0 -33381-1 0  9998", "line2": "2 66524  43.0001  74.8886 0001530 268.1453  70.6967 15.53828954  4427"}}, "geometry": {"type": "Point", "coordinates": [24.845144370769873, -34.78342620052179]}}, {"type": "Feature", "properties": {"norad_id": 66525, "name": "STARLINK-35975", "group": "last-30-days", "lat": -33.894361050877144, "lon": 26.899511363864942, "alt_km": 411.6575579629707, "timestamp": "2025-12-09T11:33:53.575259+00:00", "meta": {"OBJECT_NAME": "STARLINK-35975", "OBJECT_ID": "2025-265K", "EPOCH": "2025-12-09T04:00:01.998720", "MEAN_MOTION": 15.53827854, "ECCENTRICITY": 0.0001491, "INCLINATION": 43.0003, "RA_OF_ASC_NODE": 74.8842, "ARG_OF_PERICENTER": 261.8258, "MEAN_ANOMALY": 78.9356, "EPHEMERIS_TYPE": 0, "CLASSIFICATION_TYPE": "U", "NORAD_CAT_ID": 66525, "ELEMENT_SET_NO": 999, "REV_AT_EPOCH": 442, "BSTAR": -0.033362, "MEAN_MOTION_DOT": -0.01971169, "MEAN_MOTION_DDOT": 0}, "tle": {"line1": "1 66525U 25265K   25343.16668980 -.01971169  00000+0 -33362-1 0  9998", "line2": "2 66525  43.0003  74.8842 0001491 261.8258  78.9356 15.53827854  4422"}}, "geometry": {"type": "Point", "coordinates": [26.899511363864942, -33.894361050877144]}}, {"type": "Feature", "properties": {"norad_id": 66526, "name": "STARLINK-35932", "group": "last-30-days", "lat": -32.97374449019474, "lon": 28.907596148067764, "alt_km": 411.6659584163326, "timestamp": "2025-12-09T11:33:53.575278+00:00", "meta": {"OBJECT_NAME": "STARLINK-35932", "OBJECT_ID": "2025-265L", "EPOCH": "2025-12-09T04:00:01.998720", "MEAN_MOTION": 15.53801076, "ECCENTRICITY": 0.0001435, "INCLINATION": 43.0007, "RA_OF_ASC_NODE": 74.8806, "ARG_OF_PERICENTER": 258.1537, "MEAN_ANOMALY": 84.528, "EPHEMERIS_TYPE": 0, "CLASSIFICATION_TYPE": "U", "NORAD_CAT_ID": 66526, "ELEMENT_SET_NO": 999, "REV_AT_EPOCH": 431, "BSTAR": -0.032245, "MEAN_MOTION_DOT": -0.01876672, "MEAN_MOTION_DDOT": 0}, "tle": {"line1": "1 66526U 25265L   25343.16668980 -.01876672  00000+0 -32245-1 0  9991", "line2": "2 66526  43.0007  74.8806 0001435 258.1537  84.5280 15.53801076  4319"}}, "geometry": {"type": "Point", "coordinates": [28.907596148067764, -32.97374449019474]}}, {"type": "Feature", "properties": {"norad_id": 66527, "name": "STARLINK-35935", "group": "last-30-days", "lat": -32.02043682918742, "lon": 30.873941892050055, "alt_km": 411.83138258564486, "timestamp": "2025-12-09T11:33:53.575290+00:00", "meta": {"OBJECT_NAME": "STARLINK-35935", "OBJECT_ID": "2025-265M", "EPOCH": "2025-12-09T04:00:01.998720", "MEAN_MOTION": 15.53799867, "ECCENTRICITY": 0.0001344, "INCLINATION": 43.0007, "RA_OF_ASC_NODE": 74.876, "ARG_OF_PERICENTER": 249.5471, "MEAN_ANOMALY": 95.0527, "EPHEMERIS_TYPE": 0, "CLASSIFICATION_TYPE": "U", "NORAD_CAT_ID": 66527, "ELEMENT_SET_NO": 999, "REV_AT_EPOCH": 442, "BSTAR": -0.032225, "MEAN_MOTION_DOT": -0.01875519, "MEAN_MOTION_DDOT": 0}, "tle": {"line1": "1 66527U 25265M   25343.16668980 -.01875519  00000+0 -32225-1 0  9999", "line2": "2 66527  43.0007  74.8760 0001344 249.5471  95.0527 15.53799867  4426"}}, "geometry": {"type": "Point", "coordinates": [30.873941892050055, -32.02043682918742]}}, {"type": "Feature", "properties": {"norad_id": 66528, "name": "STARLINK-35928", "group": "last-30-days", "lat": -31.03912049400553, "lon": 32.79408972705156, "alt_km": 411.4928456555899, "timestamp": "2025-12-09T11:33:53.575300+00:00", "meta": {"OBJECT_NAME": "STARLINK-35928", "OBJECT_ID": "2025-265N", "EPOCH": "2025-12-09T04:00:01.998720", "MEAN_MOTION": 15.53831082, "ECCENTRICITY": 0.0001525, "INCLINATION": 43.0005, "RA_OF_ASC_NODE": 74.8703, "ARG_OF_PERICENTER": 265.0768, "MEAN_ANOMALY": 81.4302, "EPHEMERIS_TYPE": 0, "CLASSIFICATION_TYPE": "U", "NORAD_CAT_ID": 66528, "ELEMENT_SET_NO": 999, "REV_AT_EPOCH": 442, "BSTAR": -0.033352, "MEAN_MOTION_DOT": -0.01970849, "MEAN_MOTION_DDOT": 0}, "tle": {"line1": "1 66528U 25265N   25343.16668980 -.01970849  00000+0 -33352-1 0  9994", "line2": "2 66528  43.0005  74.8703 0001525 265.0768  81.4302 15.53831082  4421"}}, "geometry": {"type": "Point", "coordinates": [32.79408972705156, -31.03912049400553]}}, {"type": "Feature", "properties": {"norad_id": 66529, "name": "STARLINK-35933", "group": "last-30-days", "lat": -30.027854244529458, "lon": 34.67795852623023, "alt_km": 411.4324279665925, "timestamp": "2025-12-09T11:33:53.575310+00:00", "meta": {"OBJECT_NAME": "STARLINK-35933", "OBJECT_ID": "2025-265P", "EPOCH": "2025-12-09T04:00:01.998720", "MEAN_MOTION": 15.53824578, "ECCENTRICITY": 0.0001611, "INCLINATION": 43.0001, "RA_OF_ASC_NODE": 74.8649, "ARG_OF_PERICENTER": 264.3232, "MEAN_ANOMALY": 84.1046, "EPHEMERIS_TYPE": 0, "CLASSIFICATION_TYPE": "U", "NORAD_CAT_ID": 66529, "ELEMENT_SET_NO": 999, "REV_AT_EPOCH": 442, "BSTAR": -0.03322, "MEAN_MOTION_DOT": -0.01963491, "MEAN_MOTION_DDOT": 0}, "tle": {"line1": "1 66529U 25265P   25343.16668980 -.01963491  00000+0 -33220-1 0  9994", "line2": "2 66529  43.0001  74.8649 0001611 264.3232  84.1046 15.53824578  4428"}}, "geometry": {"type": "Point", "coordinates": [34.67795852623023, -30.027854244529458]}}, {"type": "Feature", "properties": {"norad_id": 66530, "name": "STARLINK-35961", "group": "last-30-days", "lat": -28.99035033825129, "lon": 36.526121348750884, "alt_km": 411.5138800421446, "timestamp": "2025-12-09T11:33:53.575320+00:00", "meta": {"OBJECT_NAME": "STARLINK-35961", "OBJECT_ID": "2025-265Q", "EPOCH": "2025-12-09T04:00:01.998720", "MEAN_MOTION": 15.53802901, "ECCENTRICITY": 0.000147, "INCLINATION": 43.0006, "RA_OF_ASC_NODE": 74.8614, "ARG_OF_PERICENTER": 258.9142, "MEAN_ANOMALY": 91.435, "EPHEMERIS_TYPE": 0, "CLASSIFICATION_TYPE": "U", "NORAD_CAT_ID": 66530, "ELEMENT_SET_NO": 999, "REV_AT_EPOCH": 442, "BSTAR": -0.032307, "MEAN_MOTION_DOT": -0.01879983, "MEAN_MOTION_DDOT": 0}, "tle": {"line1": "1 66530U 25265Q   25343.16668980 -.01879983  00000+0 -32307-1 0  9993", "line2": "2 66530  43.0006  74.8614 0001470 258.9142  91.4350 15.53802901  4424"}}, "geometry": {"type": "Point", "coordinates": [36.526121348750884, -28.99035033825129]}}, {"type": "Feature", "properties": {"norad_id": 66531, "name": "STARLINK-35960", "group": "last-30-days", "lat": -27.927412498377333, "lon": 38.334083523284775, "alt_km": 411.37635377810057, "timestamp": "2025-12-09T11:33:53.575345+00:00", "meta": {"OBJECT_NAME": "STARLINK-35960", "OBJECT_ID": "2025-265R", "EPOCH": "2025-12-09T04:00:01.998720", "MEAN_MOTION": 15.53831311, "ECCENTRICITY": 0.0001553, "INCLINATION": 43.0002, "RA_OF_ASC_NODE": 74.8553, "ARG_OF_PERICENTER": 265.0341, "MEAN_ANOMALY": 87.228, "EPHEMERIS_TYPE": 0, "CLASSIFICATION_TYPE": "U", "NORAD_CAT_ID": 66531, "ELEMENT_SET_NO": 999, "REV_AT_EPOCH": 442, "BSTAR": -0.033432, "MEAN_MOTION_DOT": -0.01975108, "MEAN_MOTION_DDOT": 0}, "tle": {"line1": "1 66531U 25265R   25343.16668980 -.01975108  00000+0 -33432-1 0  9990", "line2": "2 66531  43.0002  74.8553 0001553 265.0341  87.2280 15.53831311  4427"}}, "geometry": {"type": "Point", "coordinates": [38.334083523284775, -27.927412498377333]}}, {"type": "Feature", "properties": {"norad_id": 66532, "name": "STARLINK-35914", "group": "last-30-days", "lat": -26.843121929453872, "lon": 40.104755830473145, "alt_km": 411.26526589589866, "timestamp": "2025-12-09T11:33:53.575356+00:00", "meta": {"OBJECT_NAME": "STARLINK-35914", "OBJECT_ID": "2025-265S", "EPOCH": "2025-12-09T04:00:01.998720", "MEAN_MOTION": 15.53824246, "ECCENTRICITY": 0.0001574, "INCLINATION": 42.9995, "RA_OF_ASC_NODE": 74.8511, "ARG_OF_PERICENTER": 267.1472, "MEAN_ANOMALY": 87.0298, "EPHEMERIS_TYPE": 0, "CLASSIFICATION_TYPE": "U", "NORAD_CAT_ID": 66532, "ELEMENT_SET_NO": 999, "REV_AT_EPOCH": 442, "BSTAR": -0.033098, "MEAN_MOTION_DOT": -0.0195698, "MEAN_MOTION_DDOT": 0}, "tle": {"line1": "1 66532U 25265S   25343.16668980 -.01956980  00000+0 -33098-1 0  9996", "line2": "2 66532  42.9995  74.8511 0001574 267.1472  87.0298 15.53824246  4428"}}, "geometry": {"type": "Point", "coordinates": [40.104755830473145, -26.843121929453872]}}, {"type": "Feature", "properties": {"norad_id": 66533, "name": "STARLINK-35707", "group": "last-30-days", "lat": -25.734954241094393, "lon": 41.844842706245224, "alt_km": 411.34955764022834, "timestamp": "2025-12-09T11:33:53.575367+00:00", "meta": {"OBJECT_NAME": "STARLINK-35707", "OBJECT_ID": "2025-265T", "EPOCH": "2025-12-09T04:00:01.998720", "MEAN_MOTION": 15.53816641, "ECCENTRICITY": 0.0001474, "INCLINATION": 42.9993, "RA_OF_ASC_NODE": 74.8463, "ARG_OF_PERICENTER": 262.7039, "MEAN_ANOMALY": 93.3969, "EPHEMERIS_TYPE": 0, "CLASSIFICATION_TYPE": "U", "NORAD_CAT_ID": 66533, "ELEMENT_SET_NO": 999, "REV_AT_EPOCH": 442, "BSTAR": -0.032965, "MEAN_MOTION_DOT": -0.0194938, "MEAN_MOTION_DDOT": 0}, "tle": {"line1": "1 66533U 25265T   25343.16668980 -.01949380  00000+0 -32965-1 0  9995", "line2": "2 66533  42.9993  74.8463 0001474 262.7039  93.3969 15.53816641  4427"}}, "geometry": {"type": "Point", "coordinates": [41.844842706245224, -25.734954241094393]}}]}